[{"OBJECT_NAME":"JILIN-1 GAOFEN 3B","OBJECT_ID":"2020-065A","EPOCH":"2026-03-09T16:59:49.888320","MEAN_MOTION":15.79810651,"ECCENTRICITY":0.00034182,"INCLINATION":97.2369,"RA_OF_ASC_NODE":126.2587,"ARG_OF_PERICENTER":147.1164,"MEAN_ANOMALY":213.0317,"EPHEMERIS_TYPE":0,"CLASSIFICATION_TYPE":"U","NORAD_CAT_ID":46454,"ELEMENT_SET_NO":999,"REV_AT_EPOCH":30472,"BSTAR":0.0009879268,"MEAN_MOTION_DOT":0.00184567,"MEAN_MOTION_DDOT":0},{"OBJECT_NAME":"STARLINK-36808","OBJECT_ID":"2026-035C","EPOCH":"2026-03-09T22:00:01.999584","MEAN_MOTION":15.87173242,"ECCENTRICITY":0.00011045,"INCLINATION":97.2736,"RA_OF_ASC_NODE":1.2571,"ARG_OF_PERICENTER":89.052,"MEAN_ANOMALY":314.4302,"EPHEMERIS_TYPE":0,"CLASSIFICATION_TYPE":"U","NORAD_CAT_ID":67881,"ELEMENT_SET_NO":999,"REV_AT_EPOCH":379,"BSTAR":-0.0051505443,"MEAN_MOTION_DOT":-0.01168249,"MEAN_MOTION_DDOT":0}]
